CUTE-1 (CO-55)          
1 27844U 03031E   24232.49916897  .00001164  00000+0  53185-3 0  9994
2 27844  98.6789 238.6529 0008937 327.6633  32.3996 14.23391456 96797
CUBESAT XI-IV (CO-57)   
1 27848U 03031J   24232.45854313  .00000981  00000+0  45664-3 0  9997
2 27848  98.6820 238.8213 0009217 345.0367  15.0538 14.22814164 96536
CUBESAT XI-V            
1 28895U 05043F   24232.36041978  .00005532  00000+0  96699-3 0  9991
2 28895  98.2097   8.3218 0015943 154.8842 205.3142 14.68215017  3729
CUTE-1.7+APD II (CO-65) 
1 32785U 08021C   24232.44095010  .00011044  00000+0  94277-3 0  9993
2 32785  97.7582 197.2950 0013090 113.5935 246.6663 14.97795748884945
AAUSAT-II               
1 32788U 08021F   24232.40651852  .00042786  00000+0  18909-2 0  9998
2 32788  97.5966 213.0017 0002029   6.5259 353.6002 15.21577812887928
CANX-2                  
1 32790U 08021H   24232.43746394  .00009524  00000+0  84865-3 0  9998
2 32790  97.7708 195.9876 0013768 121.1583 239.0991 14.96157889884744
SEEDS II (CO-66)        
1 32791U 08021J   24232.44501873  .00017989  00000+0  12462-2 0  9998
2 32791  97.6954 203.3449 0008310  97.0367 263.1804 15.05671756886035
SWISSCUBE               
1 35932U 09051B   24232.45339886  .00003513  00000+0  75130-3 0  9996
2 35932  98.4617 117.0149 0008414 117.4942 242.7113 14.59417798791784
BEESAT-1                
1 35933U 09051C   24232.60777340  .00003053  00000+0  65872-3 0  9996
2 35933  98.4546 117.9970 0006562 126.2681 233.9125 14.59107171791873
ITUPSAT1                
1 35935U 09051E   24232.39373136  .00002769  00000+0  61234-3 0  9990
2 35935  98.4645 117.5293 0008638 135.4492 224.7402 14.58036498791471
TISAT 1                 
1 36799U 10035E   24232.24748857  .00017621  00000+0  12704-2 0  9993
2 36799  98.0815 124.4570 0005082  41.5416 318.6194 15.04207559766533
AEROCUBE 4.5A           
1 38767U 12048K   24232.10971641  .00031366  00000+0  15363-2 0  9996
2 38767  64.6590 111.5635 0109831 356.8721   3.1700 15.12813056269975
AEROCUBE 4.5B           
1 38768U 12048L   24232.15442350  .00052185  00000+0  15508-2 0  9995
2 38768  64.6535  31.5761 0086903 343.0089  16.8134 15.30735214271047
STRAND-1                
1 39090U 13009E   24232.46921851  .00001175  00000+0  41705-3 0  9996
2 39090  98.3822  59.0186 0009975  66.7809 293.4427 14.36199331601323
BRITE-AUSTRIA           
1 39091U 13009F   24232.45782513  .00000768  00000+0  27928-3 0  9994
2 39091  98.3865  58.2820 0011502  72.9910 287.2536 14.35891902601344
NEE-01 PEGASO           
1 39151U 13018B   24232.57172008  .00007477  00000+0  84922-3 0  9997
2 39151  98.0427 350.3504 0014563 189.3743 170.7202 14.86509200611388
ESTCUBE 1               
1 39161U 13021C   24232.15749090  .00005416  00000+0  77602-3 0  9995
2 39161  97.8247 296.7079 0009407  34.5543 325.6277 14.76922946606388
POPACS 1                
1 39268U 13055D   24232.53904968  .00035640  00000+0  58729-3 0  9990
2 39268  80.9777  78.2193 0385095 248.1044 107.8821 14.98228135571475
POPACS 2                
1 39269U 13055E   24232.54740374  .00022438  00000+0  50438-3 0  9991
2 39269  81.0041 170.4641 0542300 129.2139 235.8526 14.59214659564832
POPACS 3                
1 39270U 13055F   24232.23064865  .00012717  00000+0  34851-3 0  9993
2 39270  81.0059 223.5980 0619159 278.0636  75.0786 14.38884367542026
ZACUBE-1 (TSHEPISOSAT)  
1 39417U 13066B   24232.39350570  .00011030  00000+0  11146-2 0  9994
2 39417  97.7374 186.9939 0047921 312.9454  46.7749 14.90337258580999
WNISAT-1                
1 39423U 13066H   24232.47754202  .00003851  00000+0  73664-3 0  9996
2 39423  97.6696  61.6814 0169497 170.1067 190.3540 14.55543310569643
TRITON-1                
1 39427U 13066M   24232.56952777  .00006327  00000+0  87725-3 0  9991
2 39427  97.8378 148.5339 0099914 237.3785 121.7752 14.74872765575552
DELFI-N3XT              
1 39428U 13066N   24232.53328066  .00011980  00000+0  14809-2 0  9990
2 39428  97.8341 149.2405 0096669 242.4808 116.6555 14.79630613575454
GOMX-1                  
1 39430U 13066Q   24232.59606048  .00006301  00000+0  10320-2 0  9993
2 39430  97.7231 103.1309 0140220  51.6053 309.7648 14.64701144572144
CUBEBUG-2 (LO-74)       
1 39440U 13066AA  24232.57023810  .00010330  00000+0  11860-2 0  9999
2 39440  97.8145 174.9081 0070637  67.7731 293.0956 14.84215155577739
NEE-02 KRYSAOR          
1 39441U 13066AB  24232.57054517  .00006998  00000+0  87263-3 0  9994
2 39441  97.8240 170.5299 0075447  89.9575 271.0283 14.80701805577316
FUNCUBE-1 (AO-73)       
1 39444U 13066AE  24232.42625426  .00014517  00000+0  13552-2 0  9999
2 39444  97.7227 190.3244 0044344 291.3144  68.3345 14.93532636579547
UWE-3                   
1 39446U 13066AG  24232.39236321  .00011954  00000+0  12949-2 0  9990
2 39446  97.7839 180.8218 0059583  13.8176 346.4654 14.87059513578099
BRITE-CA1 (TORONTO)     
1 40020U 14033L   24232.34258876  .00003660  00000+0  59175-3 0  9997
2 40020  97.8856   7.2810 0081507 250.2074 109.0331 14.69735030544143
DUCHIFAT-1              
1 40021U 14033M   24232.18492648  .00025861  00000+0  16028-2 0  9993
2 40021  98.0933 219.3624 0010486 237.7760 122.2452 15.09693028553621
NANOSATC-BR1            
1 40024U 14033Q   24232.60603319  .00019797  00000+0  13881-2 0  9997
2 40024  98.0681 207.4321 0004150 337.7468  22.3576 15.05227504552784
QB50P1                  
1 40025U 14033R   24232.44213630  .00015195  00000+0  11864-2 0  9990
2 40025  98.0480 195.3379 0012631 330.0846  29.9653 15.01166989552367
QB50P2                  
1 40032U 14033Y   24232.39993008  .00014141  00000+0  11469-2 0  9997
2 40032  98.0070 186.5792 0007945 298.5840  61.4583 14.99761516552147
PERSEUS-M2              
1 40037U 14033AD  24232.52628186  .00004751  00000+0  48613-3 0  9997
2 40037  97.9262 163.5575 0012697 354.2613   5.8457 14.90957518551269
PERSEUS-M1              
1 40039U 14033AF  24232.35918845  .00005855  00000+0  60057-3 0  9996
2 40039  97.9055 159.2632 0012417 354.9967   5.1125 14.90761555551096
POLYITAN-1              
1 40042U 14033AJ  24232.18507946  .00020427  00000+0  14589-2 0  9997
2 40042  98.0741 199.1431 0009960 281.0997  78.9107 15.04497340552303
TIGRISAT                
1 40043U 14033AK  24232.38864237  .00006957  00000+0  91136-3 0  9995
2 40043  97.7015  32.4288 0055917  97.5178 263.2391 14.79550749546803
AEROCUBE 6A             
1 40045U 14033AM  24232.44055488  .00012870  00000+0  14886-2 0  9991
2 40045  97.6737  43.4771 0050240  74.2729 286.4020 14.84745666547179
AEROCUBE 6B             
1 40046U 14033AN  24232.43854317  .00013057  00000+0  14789-2 0  9999
2 40046  97.6709  42.2372 0048834  69.4098 291.2347 14.85648835547238
CANX-4                  
1 40055U 14034C   24232.48138105  .00003387  00000+0  47188-3 0  9990
2 40055  98.3905  69.8681 0013223 354.4661   5.6400 14.78414392545909
CANX-5                  
1 40056U 14034D   24232.48614398  .00003467  00000+0  48279-3 0  9995
2 40056  98.3908  69.8797 0013208 354.6628   5.4438 14.78424225536713
UKUBE-1                 
1 40074U 14037F   24232.40757353  .00015066  00000+0  13709-2 0  9996
2 40074  98.3419 166.2747 0003338 194.3157 165.7967 14.95296974548229
BRITE-PL2 (HEWELIUSZ)   
1 40119U 14049B   24232.24673468  .00005904  00000+0  62516-3 0  9996
2 40119  97.8858 331.6553 0016217 153.1668 207.0391 14.89428758541968
AEROCUBE 5C             
1 40965U 15058B   24232.17738472  .00009655  00000+0  85452-3 0  9996
2 40965  64.7702 168.1665 0192214 289.0908  68.9473 14.83605242266387
AEROCUBE 7              
1 40966U 15058C   24232.51285631  .00011177  00000+0  94893-3 0  9990
2 40966  64.7680 160.2929 0186719 288.5654  69.5253 14.85698312266536
FOX-1A (AO-85)          
1 40967U 15058D   24232.26354773  .00009775  00000+0  88234-3 0  9990
2 40967  64.7775 182.0014 0191215 284.8721  73.1279 14.83000351 14347
SINOD-D 1               
1 40968U 15058E   24232.28178140  .00011983  00000+0  10342-2 0  9993
2 40968  64.7777 174.0874 0185396 283.8140  74.2400 14.85218151 17186
SNAP-3 ALICE            
1 40970U 15058G   24232.41552738  .00022349  00000+0  14474-2 0  9998
2 40970  64.7708 127.0213 0153471 281.3680  77.0229 14.98889489 15257
LMRST-SAT               
1 40971U 15058H   24232.24091888  .00009356  00000+0  84334-3 0  9990
2 40971  64.7767 177.6096 0192406 286.2765  71.7255 14.82937013 14341
SNAP-3 EDDIE            
1 40972U 15058J   24232.41035460  .00022304  00000+0  14271-2 0  9994
2 40972  64.7682 120.3210 0153657 282.2922  76.1027 14.99291555 17359
PROPCUBE 3              
1 40973U 15058K   24232.52420410  .00010325  00000+0  89160-3 0  9990
2 40973  64.7716 163.9580 0188710 287.4960  70.5603 14.84890136 15437
BISONSAT                
1 40974U 15058L   24232.18090234  .00018230  00000+0  13297-2 0  9990
2 40974  64.7685 137.0345 0168271 285.1200  73.1352 14.93094071 15160
SNAP-3 JIMI             
1 40975U 15058M   24232.20318910  .00013737  00000+0  11036-2 0  9994
2 40975  64.7699 152.0131 0180042 286.4955  71.6441 14.88380570 14401
PROPCUBE 1 (FLORA)      
1 40976U 15058N   24232.28430120  .00008694  00000+0  81532-3 0  9996
2 40976  64.7751 193.2487 0190738 287.5407  70.4940 14.81745787 17142
SINOD-D 3               
1 40977U 15058P   24232.25362572  .00012066  00000+0  10798-2 0  9992
2 40977  64.7744 186.0278 0184863 286.7039  71.3852 14.83951675 15380
HORYU-4                 
1 41340U 16012D   24232.22217404  .00023288  00000+0  10856-2 0  9991
2 41340  31.0015 284.1855 0008933 247.0817 112.8881 15.18681925467731
RAVAN                   
1 41849U 16067B   24232.45509704  .00019584  00000+0  10212-2 0  9997
2 41849  98.0661  53.9481 0012683 170.1051 190.0432 15.15941846425568
CELTEE 1                
1 41850U 16067C   24232.44092246  .00012274  00000+0  80769-3 0  9990
2 41850  98.1060  45.2544 0000994  24.6054 335.5220 15.07712340424955
